[{"OBJECT_NAME":"KUIPER-00241","OBJECT_ID":"2025-301S","EPOCH":"2026-03-09T06:38:31.196544","MEAN_MOTION":14.79876091,"ECCENTRICITY":6.519e-5,"INCLINATION":51.9025,"RA_OF_ASC_NODE":77.4378,"ARG_OF_PERICENTER":133.9067,"MEAN_ANOMALY":226.1949,"EPHEMERIS_TYPE":0,"CLASSIFICATION_TYPE":"U","NORAD_CAT_ID":67149,"ELEMENT_SET_NO":999,"REV_AT_EPOCH":1386,"BSTAR":0.00047617526,"MEAN_MOTION_DOT":3.406e-5,"MEAN_MOTION_DDOT":0},{"OBJECT_NAME":"FENGYUN 1C DEB","OBJECT_ID":"1999-025BFP","EPOCH":"2026-03-03T16:36:30.506400","MEAN_MOTION":14.57818689,"ECCENTRICITY":0.01030673,"INCLINATION":99.1064,"RA_OF_ASC_NODE":235.5112,"ARG_OF_PERICENTER":192.0771,"MEAN_ANOMALY":167.7953,"EPHEMERIS_TYPE":0,"CLASSIFICATION_TYPE":"U","NORAD_CAT_ID":31069,"ELEMENT_SET_NO":999,"REV_AT_EPOCH":99865,"BSTAR":0.0013815638,"MEAN_MOTION_DOT":6.747e-5,"MEAN_MOTION_DDOT":0}]
